NOAA 1 [-]              
1 04793U 70106A   21355.82555615 -.00000021  00000+0  14512-3 0  9999
2 04793 101.5851  58.9402 0031311 307.8857 161.3532 12.54002163335322
NOAA 2 (ITOS-D) [-]     
1 06235U 72082A   21355.90633358 -.00000047  00000+0 -61056-5 0  9993
2 06235 101.9313 332.1963 0004263  54.2173 333.4671 12.53141569249739
NOAA 3 [-]              
1 06920U 73086A   21356.51839791 -.00000036  00000+0  70305-4 0  9999
2 06920 102.1852 332.6813 0006371 258.9998 212.3829 12.40344341179045
NOAA 4 [-]              
1 07529U 74089A   21355.89304222 -.00000040  00000+0  38285-4 0  9991
2 07529 101.8904 330.1801 0009205  83.2359 331.1128 12.53153125154300
NOAA 5 [-]              
1 09057U 76077A   21355.90760125 -.00000027  00000+0  14004-3 0  9995
2 09057 102.0726 320.9754 0009916 105.0040 317.2395 12.37765725 51771
TIROS N [-]             
1 11060U 78096A   21355.78871519  .00000081  00000+0  60247-4 0  9991
2 11060  98.6636  49.0074 0009645 297.0234  62.9957 14.18339912446422
NOAA 6 [-]              
1 11416U 79057A   21355.92991167  .00000111  00000+0  56174-4 0  9990
2 11416  98.6668   1.4906 0011276  65.2659 294.9698 14.33677315216082
NOAA 7 [-]              
1 12553U 81059A   21355.68404406 -.00000013  00000+0  16605-4 0  9993
2 12553  99.0255  32.6584 0010585 260.2974  99.7005 14.17309104 92613
NOAA 8 [-]              
1 13923U 83022A   21355.90183575  .00000053  00000+0  38743-4 0  9993
2 13923  98.6722 342.2884 0015374  12.8411 347.3159 14.28760936 17312
NOAA 9 [-]              
1 15427U 84123A   21355.90248052  .00000043  00000+0  44910-4 0  9991
2 15427  99.0214 320.7436 0014187 311.6448 106.1027 14.16157507911486
NOAA 10 [-]             
1 16969U 86073A   21355.92161076  .00000043  00000+0  34473-4 0  9994
2 16969  98.5510 340.5211 0013195 111.3296 308.3630 14.28157678835490
NOAA 11 [-]             
1 19531U 88089A   21355.89425281  .00000006  00000+0  23877-4 0  9993
2 19531  98.4118 349.8637 0010682 336.0353  24.0323 14.15286585715701
NOAA 12 [-]             
1 21263U 91032A   21355.89860012  .00000027  00000+0  28930-4 0  9993
2 21263  98.5089 355.7602 0014467 135.7440 224.4900 14.25959807591421
NOAA 13 [-]             
1 22739U 93050A   21356.18359819  .00000046  00000+0  46568-4 0  9993
2 22739  98.4855 340.0193 0010335 127.2376 232.9741 14.12805688462265
NOAA 14 [-]             
1 23455U 94089A   21355.89658892  .00000008  00000+0  25473-4 0  9992
2 23455  98.4690  27.0080 0010529 112.6481 247.5807 14.14175631391610
NOAA 15 [B]             
1 25338U 98030A   21356.54406889  .00000077  00000+0  50696-4 0  9995
2 25338  98.6641  23.2168 0011421  93.3491 266.8996 14.26077427228050
NOAA 16 [-]             
1 26536U 00055A   21355.84210680  .00000028  00000+0  37810-4 0  9999
2 26536  98.6642  55.6428 0009706 316.7730  43.2680 14.13297400392264
NOAA 17 [-]             
1 27453U 02032A   21355.87100219  .00000043  00000+0  36778-4 0  9993
2 27453  98.6517 298.4143 0012898  70.1439 290.1129 14.25083579 13587
NOAA 18 [B]             
1 28654U 05018A   21356.42553443  .00000134  00000+0  96552-4 0  9994
2 28654  98.9729  61.8317 0015180 111.1341 249.1455 14.12669169855074
NOAA 19 [+]             
1 33591U 09005A   21356.47805769  .00000081  00000+0  68875-4 0  9994
2 33591  99.1688  21.7135 0013391 328.2321  31.8041 14.12516633663465
SUOMI NPP [+]           
1 37849U 11061A   21356.50948310  .00000054  00000+0  46248-4 0  9993
2 37849  98.7163 292.6732 0001370  97.3358  33.5508 14.19570015526082
NOAA 20 [+]             
1 43013U 17073A   21356.44737300  .00000051  00000+0  45035-4 0  9990
2 43013  98.7404 292.3722 0001041 102.3444 257.7849 14.19565445212119
